{"fetched_at":"2026-07-22T07:09:20.374Z","source":"https://celestrak.org/NORAD/elements/gp.php?GROUP=kuiper&FORMAT=JSON","constellation":"kuiper","records":[{"OBJECT_NAME":"KUIPER-00163","OBJECT_ID":"2025-217R","EPOCH":"2026-07-21T22:48:50.114592","CLASSIFICATION_TYPE":"U","MEAN_MOTION":16.14491724,"ECCENTRICITY":0.0005022,"INCLINATION":51.8675,"RA_OF_ASC_NODE":81.4629,"ARG_OF_PERICENTER":244.0669,"MEAN_ANOMALY":115.9833,"EPHEMERIS_TYPE":0,"NORAD_CAT_ID":65777,"ELEMENT_SET_NO":999,"REV_AT_EPOCH":4596,"BSTAR":0.00087657,"MEAN_MOTION_DOT":0.0114049,"MEAN_MOTION_DDOT":0.00088795},{"OBJECT_NAME":"KUIPER-00165","OBJECT_ID":"2025-217S","EPOCH":"2026-07-21T07:10:47.388576","CLASSIFICATION_TYPE":"U","MEAN_MOTION":14.79934385,"ECCENTRICITY":0.00006529,"INCLINATION":51.9005,"RA_OF_ASC_NODE":164.7827,"ARG_OF_PERICENTER":77.4696,"MEAN_ANOMALY":282.6339,"EPHEMERIS_TYPE":0,"NORAD_CAT_ID":65778,"ELEMENT_SET_NO":999,"REV_AT_EPOCH":4476,"BSTAR":0.00030822125,"MEAN_MOTION_DOT":0.00002129,"MEAN_MOTION_DDOT":0},{"OBJECT_NAME":"KUIPER-00166","OBJECT_ID":"2025-217T","EPOCH":"2026-07-21T03:26:57.334560","CLASSIFICATION_TYPE":"U","MEAN_MOTION":14.79918146,"ECCENTRICITY":0.00007122,"INCLINATION":51.9031,"RA_OF_ASC_NODE":153.0196,"ARG_OF_PERICENTER":94.2248,"MEAN_ANOMALY":265.8796,"EPHEMERIS_TYPE":0,"NORAD_CAT_ID":65779,"ELEMENT_SET_NO":999,"REV_AT_EPOCH":4491,"BSTAR":0.00030549924,"MEAN_MOTION_DOT":0.00002108,"MEAN_MOTION_DDOT":0},{"OBJECT_NAME":"KUIPER-00167","OBJECT_ID":"2025-217U","EPOCH":"2026-07-21T15:01:26.583168","CLASSIFICATION_TYPE":"U","MEAN_MOTION":14.79931491,"ECCENTRICITY":0.00006951,"INCLINATION":51.8958,"RA_OF_ASC_NODE":173.2443,"ARG_OF_PERICENTER":72.756,"MEAN_ANOMALY":287.3479,"EPHEMERIS_TYPE":0,"NORAD_CAT_ID":65780,"ELEMENT_SET_NO":999,"REV_AT_EPOCH":4467,"BSTAR":0.00029148698,"MEAN_MOTION_DOT":0.00002002,"MEAN_MOTION_DDOT":0},{"OBJECT_NAME":"KUIPER-00168","OBJECT_ID":"2025-217V","EPOCH":"2026-07-21T13:51:25.985376","CLASSIFICATION_TYPE":"U","MEAN_MOTION":14.79947274,"ECCENTRICITY":0.00008194,"INCLINATION":51.8996,"RA_OF_ASC_NODE":156.0576,"ARG_OF_PERICENTER":67.0242,"MEAN_ANOMALY":293.0807,"EPHEMERIS_TYPE":0,"NORAD_CAT_ID":65781,"ELEMENT_SET_NO":999,"REV_AT_EPOCH":4491,"BSTAR":0.00036434527,"MEAN_MOTION_DOT":0.00002558,"MEAN_MOTION_DDOT":0},{"OBJECT_NAME":"KUIPER-00169","OBJECT_ID":"2025-217W","EPOCH":"2026-07-21T07:14:40.968384","CLASSIFICATION_TYPE":"U","MEAN_MOTION":14.79938788,"ECCENTRICITY":0.00006247,"INCLINATION":51.901,"RA_OF_ASC_NODE":162.2856,"ARG_OF_PERICENTER":85.9324,"MEAN_ANOMALY":274.171,"EPHEMERIS_TYPE":0,"NORAD_CAT_ID":65782,"ELEMENT_SET_NO":999,"REV_AT_EPOCH":4480,"BSTAR":0.00030893306,"MEAN_MOTION_DOT":0.00002135,"MEAN_MOTION_DDOT":0},{"OBJECT_NAME":"KUIPER-00170","OBJECT_ID":"2025-217X","EPOCH":"2026-07-21T15:13:07.754592","CLASSIFICATION_TYPE":"U","MEAN_MOTION":14.79946205,"ECCENTRICITY":0.00007044,"INCLINATION":51.8988,"RA_OF_ASC_NODE":165.7727,"ARG_OF_PERICENTER":64.932,"MEAN_ANOMALY":295.1715,"EPHEMERIS_TYPE":0,"NORAD_CAT_ID":65783,"ELEMENT_SET_NO":999,"REV_AT_EPOCH":4478,"BSTAR":0.00031413511,"MEAN_MOTION_DOT":0.00002175,"MEAN_MOTION_DDOT":0},{"OBJECT_NAME":"KUIPER-00172","OBJECT_ID":"2025-217Z","EPOCH":"2026-07-21T01:53:40.636320","CLASSIFICATION_TYPE":"U","MEAN_MOTION":14.79954143,"ECCENTRICITY":0.00009792,"INCLINATION":51.8991,"RA_OF_ASC_NODE":150.7551,"ARG_OF_PERICENTER":113.1533,"MEAN_ANOMALY":246.9532,"EPHEMERIS_TYPE":0,"NORAD_CAT_ID":65785,"ELEMENT_SET_NO":999,"REV_AT_EPOCH":4494,"BSTAR":0.0002710206,"MEAN_MOTION_DOT":0.00001846,"MEAN_MOTION_DDOT":0},{"OBJECT_NAME":"KUIPER-00173","OBJECT_ID":"2025-217AA","EPOCH":"2026-07-21T14:32:15.495360","CLASSIFICATION_TYPE":"U","MEAN_MOTION":14.79931478,"ECCENTRICITY":0.00007621,"INCLINATION":51.9006,"RA_OF_ASC_NODE":160.9366,"ARG_OF_PERICENTER":79.7939,"MEAN_ANOMALY":280.3109,"EPHEMERIS_TYPE":0,"NORAD_CAT_ID":65786,"ELEMENT_SET_NO":999,"REV_AT_EPOCH":4484,"BSTAR":0.00034210667,"MEAN_MOTION_DOT":0.00002388,"MEAN_MOTION_DDOT":0},{"OBJECT_NAME":"KUIPER-00174","OBJECT_ID":"2025-217AB","EPOCH":"2026-07-21T01:42:06.125472","CLASSIFICATION_TYPE":"U","MEAN_MOTION":14.79932129,"ECCENTRICITY":0.00007932,"INCLINATION":51.9013,"RA_OF_ASC_NODE":158.3525,"ARG_OF_PERICENTER":58.6186,"MEAN_ANOMALY":301.4854,"EPHEMERIS_TYPE":0,"NORAD_CAT_ID":65787,"ELEMENT_SET_NO":999,"REV_AT_EPOCH":4483,"BSTAR":0.00025044111,"MEAN_MOTION_DOT":0.00001688,"MEAN_MOTION_DDOT":0},{"OBJECT_NAME":"KUIPER-00176","OBJECT_ID":"2025-217AC","EPOCH":"2026-07-21T04:33:17.202816","CLASSIFICATION_TYPE":"U","MEAN_MOTION":14.79939366,"ECCENTRICITY":0.00005374,"INCLINATION":51.8995,"RA_OF_ASC_NODE":172.7571,"ARG_OF_PERICENTER":76.8127,"MEAN_ANOMALY":283.2895,"EPHEMERIS_TYPE":0,"NORAD_CAT_ID":65788,"ELEMENT_SET_NO":999,"REV_AT_EPOCH":4464,"BSTAR":0.00026601045,"MEAN_MOTION_DOT":0.00001808,"MEAN_MOTION_DDOT":0},{"OBJECT_NAME":"KUIPER-00101","OBJECT_ID":"2025-228A","EPOCH":"2026-07-21T04:50:35.495808","CLASSIFICATION_TYPE":"U","MEAN_MOTION":14.79958119,"ECCENTRICITY":0.00009274,"INCLINATION":51.8986,"RA_OF_ASC_NODE":130.1617,"ARG_OF_PERICENTER":84.2954,"MEAN_ANOMALY":275.8114,"EPHEMERIS_TYPE":0,"NORAD_CAT_ID":65947,"ELEMENT_SET_NO":999,"REV_AT_EPOCH":4300,"BSTAR":0.00036669012,"MEAN_MOTION_DOT":0.00002577,"MEAN_MOTION_DDOT":0},{"OBJECT_NAME":"KUIPER-00113","OBJECT_ID":"2025-228B","EPOCH":"2026-07-21T12:16:00.077664","CLASSIFICATION_TYPE":"U","MEAN_MOTION":14.79948889,"ECCENTRICITY":0.00009158,"INCLINATION":51.8981,"RA_OF_ASC_NODE":123.8141,"ARG_OF_PERICENTER":87.8497,"MEAN_ANOMALY":272.257,"EPHEMERIS_TYPE":0,"NORAD_CAT_ID":65948,"ELEMENT_SET_NO":999,"REV_AT_EPOCH":4311,"BSTAR":0.00044578759,"MEAN_MOTION_DOT":0.0000318,"MEAN_MOTION_DDOT":0},{"OBJECT_NAME":"KUIPER-00117","OBJECT_ID":"2025-228C","EPOCH":"2026-07-21T01:39:51.446016","CLASSIFICATION_TYPE":"U","MEAN_MOTION":14.79995258,"ECCENTRICITY":0.00013059,"INCLINATION":51.8971,"RA_OF_ASC_NODE":128.265,"ARG_OF_PERICENTER":91.4685,"MEAN_ANOMALY":268.6427,"EPHEMERIS_TYPE":0,"NORAD_CAT_ID":65949,"ELEMENT_SET_NO":999,"REV_AT_EPOCH":4301,"BSTAR":0.00060610871,"MEAN_MOTION_DOT":0.00004409,"MEAN_MOTION_DDOT":0},{"OBJECT_NAME":"KUIPER-00121","OBJECT_ID":"2025-228D","EPOCH":"2026-07-21T12:19:53.026752","CLASSIFICATION_TYPE":"U","MEAN_MOTION":14.79944851,"ECCENTRICITY":0.00008559,"INCLINATION":51.9,"RA_OF_ASC_NODE":121.3173,"ARG_OF_PERICENTER":99.5928,"MEAN_ANOMALY":260.5131,"EPHEMERIS_TYPE":0,"NORAD_CAT_ID":65950,"ELEMENT_SET_NO":999,"REV_AT_EPOCH":4315,"BSTAR":0.00035811565,"MEAN_MOTION_DOT":0.00002511,"MEAN_MOTION_DDOT":0},{"OBJECT_NAME":"KUIPER-00122","OBJECT_ID":"2025-228E","EPOCH":"2026-07-21T00:43:39.172800","CLASSIFICATION_TYPE":"U","MEAN_MOTION":14.79944364,"ECCENTRICITY":0.00008664,"INCLINATION":51.8998,"RA_OF_ASC_NODE":133.4273,"ARG_OF_PERICENTER":83.1046,"MEAN_ANOMALY":277.0015,"EPHEMERIS_TYPE":0,"NORAD_CAT_ID":65951,"ELEMENT_SET_NO":999,"REV_AT_EPOCH":4294,"BSTAR":0.00032441174,"MEAN_MOTION_DOT":0.00002253,"MEAN_MOTION_DDOT":0},{"OBJECT_NAME":"KUIPER-00123","OBJECT_ID":"2025-228F","EPOCH":"2026-07-21T01:32:14.054784","CLASSIFICATION_TYPE":"U","MEAN_MOTION":14.79955351,"ECCENTRICITY":0.000097,"INCLINATION":51.899,"RA_OF_ASC_NODE":133.2893,"ARG_OF_PERICENTER":67.8822,"MEAN_ANOMALY":292.2243,"EPHEMERIS_TYPE":0,"NORAD_CAT_ID":65952,"ELEMENT_SET_NO":999,"REV_AT_EPOCH":4294,"BSTAR":0.00031934199,"MEAN_MOTION_DOT":0.00002215,"MEAN_MOTION_DDOT":0},{"OBJECT_NAME":"KUIPER-00124","OBJECT_ID":"2025-228G","EPOCH":"2026-07-21T00:06:38.015424","CLASSIFICATION_TYPE":"U","MEAN_MOTION":14.79954488,"ECCENTRICITY":0.00009112,"INCLINATION":51.8992,"RA_OF_ASC_NODE":126.041,"ARG_OF_PERICENTER":84.1378,"MEAN_ANOMALY":275.9689,"EPHEMERIS_TYPE":0,"NORAD_CAT_ID":65953,"ELEMENT_SET_NO":999,"REV_AT_EPOCH":4304,"BSTAR":0.00028535478,"MEAN_MOTION_DOT":0.00001956,"MEAN_MOTION_DDOT":0},{"OBJECT_NAME":"KUIPER-00125","OBJECT_ID":"2025-228H","EPOCH":"2026-07-21T03:44:28.753440","CLASSIFICATION_TYPE":"U","MEAN_MOTION":14.79945993,"ECCENTRICITY":0.00009543,"INCLINATION":51.9008,"RA_OF_ASC_NODE":110.4178,"ARG_OF_PERICENTER":93.0975,"MEAN_ANOMALY":267.0097,"EPHEMERIS_TYPE":0,"NORAD_CAT_ID":65954,"ELEMENT_SET_NO":999,"REV_AT_EPOCH":4327,"BSTAR":0.00034859233,"MEAN_MOTION_DOT":0.00002438,"MEAN_MOTION_DDOT":0},{"OBJECT_NAME":"KUIPER-00126","OBJECT_ID":"2025-228J","EPOCH":"2026-07-21T12:08:11.241024","CLASSIFICATION_TYPE":"U","MEAN_MOTION":14.79958404,"ECCENTRICITY":0.00009679,"INCLINATION":51.8993,"RA_OF_ASC_NODE":128.8562,"ARG_OF_PERICENTER":86.2073,"MEAN_ANOMALY":273.9,"EPHEMERIS_TYPE":0,"NORAD_CAT_ID":65955,"ELEMENT_SET_NO":999,"REV_AT_EPOCH":4304,"BSTAR":0.00036308211,"MEAN_MOTION_DOT":0.00002549,"MEAN_MOTION_DDOT":0},{"OBJECT_NAME":"KUIPER-00127","OBJECT_ID":"2025-228K","EPOCH":"2026-07-21T03:49:22.503936","CLASSIFICATION_TYPE":"U","MEAN_MOTION":14.79940355,"ECCENTRICITY":0.00010196,"INCLINATION":51.9014,"RA_OF_ASC_NODE":122.8599,"ARG_OF_PERICENTER":87.1983,"MEAN_ANOMALY":272.9096,"EPHEMERIS_TYPE":0,"NORAD_CAT_ID":65956,"ELEMENT_SET_NO":999,"REV_AT_EPOCH":4310,"BSTAR":0.00034940072,"MEAN_MOTION_DOT":0.00002444,"MEAN_MOTION_DDOT":0},{"OBJECT_NAME":"KUIPER-00128","OBJECT_ID":"2025-228L","EPOCH":"2026-07-21T03:25:01.026336","CLASSIFICATION_TYPE":"U","MEAN_MOTION":14.79958059,"ECCENTRICITY":0.00009468,"INCLINATION":51.901,"RA_OF_ASC_NODE":122.9997,"ARG_OF_PERICENTER":84.7626,"MEAN_ANOMALY":275.3444,"EPHEMERIS_TYPE":0,"NORAD_CAT_ID":65957,"ELEMENT_SET_NO":999,"REV_AT_EPOCH":4309,"BSTAR":0.0003430137,"MEAN_MOTION_DOT":0.00002396,"MEAN_MOTION_DDOT":0},{"OBJECT_NAME":"KUIPER-00129","OBJECT_ID":"2025-228M","EPOCH":"2026-07-20T23:29:41.438976","CLASSIFICATION_TYPE":"U","MEAN_MOTION":14.79953246,"ECCENTRICITY":0.00008855,"INCLINATION":51.9009,"RA_OF_ASC_NODE":118.7036,"ARG_OF_PERICENTER":90.4027,"MEAN_ANOMALY":269.7037,"EPHEMERIS_TYPE":0,"NORAD_CAT_ID":65958,"ELEMENT_SET_NO":999,"REV_AT_EPOCH":4314,"BSTAR":0.00030232318,"MEAN_MOTION_DOT":0.00002085,"MEAN_MOTION_DDOT":0}]}
